PIESAT A                
1 56153U 23047A   26068.57334807  .00005852  00000+0  32318-3 0  9994
2 56153  97.5034 257.1452 0002367  89.9230 270.2273 15.14302818162729
PIESAT B                
1 56154U 23047B   26068.57334719  .00003244  00000+0  18082-3 0  9992
2 56154  97.5017 257.1462 0001556 107.7309 252.4093 15.14300167162724
